{
  "type": "FeatureCollection",
  "features": [
    {
      "type": "Feature",
      "properties": {
        "norad_id": 34682,
        "name": "COSMOS 2251 DEB",
        "group": "cosmos-2251-debris",
        "lat": 67.80787361743596,
        "lon": -167.72613629063713,
        "alt_km": 687.8866396979884,
        "timestamp": "2025-12-26T11:25:45.585422+00:00",
        "meta_object_name": "COSMOS 2251 DEB",
        "meta_object_id": "1993-036YC",
        "meta_epoch": "2025-12-25T05:37:08.190912",
        "meta_mean_motion": 14.5897783,
        "meta_eccentricity": 0.0017639,
        "meta_inclination": 74.0393,
        "meta_ra_of_asc_node": 59.1916,
        "meta_arg_of_pericenter": 190.9494,
        "meta_mean_anomaly": 233.5943,
        "meta_ephemeris_type": 0,
        "meta_classification_type": "U",
        "meta_norad_cat_id": 34682,
        "meta_element_set_no": 999,
        "meta_rev_at_epoch": 88868,
        "meta_bstar": 0.000728,
        "meta_mean_motion_dot": 3.396e-05,
        "meta_mean_motion_ddot": 0,
        "tle_line1": "1 34682U 93036YC  25359.23412258  .00003396  00000+0  72800-3 0  9995",
        "tle_line2": "2 34682  74.0393  59.1916 0017639 190.9494 233.5943 14.58977830888683"
      },
      "geometry": {
        "type": "Point",
        "coordinates": [
          -167.72613629063713,
          67.80787361743596
        ]
      }
    },
    {
      "type": "Feature",
      "properties": {
        "norad_id": 34683,
        "name": "COSMOS 2251 DEB",
        "group": "cosmos-2251-debris",
        "lat": 3.2198857020470038,
        "lon": -115.06988084451297,
        "alt_km": 668.2086905300303,
        "timestamp": "2025-12-26T11:25:45.585431+00:00",
        "meta_object_name": "COSMOS 2251 DEB",
        "meta_object_id": "1993-036YD",
        "meta_epoch": "2025-12-25T15:38:47.520960",
        "meta_mean_motion": 14.64647296,
        "meta_eccentricity": 0.0017296,
        "meta_inclination": 74.0287,
        "meta_ra_of_asc_node": 67.4379,
        "meta_arg_of_pericenter": 182.0594,
        "meta_mean_anomaly": 330.0429,
        "meta_ephemeris_type": 0,
        "meta_classification_type": "U",
        "meta_norad_cat_id": 34683,
        "meta_element_set_no": 999,
        "meta_rev_at_epoch": 88537,
        "meta_bstar": 0.0012249,
        "meta_mean_motion_dot": 6.502e-05,
        "meta_mean_motion_ddot": 0,
        "tle_line1": "1 34683U 93036YD  25359.65193890  .00006502  00000+0  12249-2 0  9992",
        "tle_line2": "2 34683  74.0287  67.4379 0017296 182.0594 330.0429 14.64647296885375"
      },
      "geometry": {
        "type": "Point",
        "coordinates": [
          -115.06988084451297,
          3.2198857020470038
        ]
      }
    },
    {
      "type": "Feature",
      "properties": {
        "norad_id": 34685,
        "name": "COSMOS 2251 DEB",
        "group": "cosmos-2251-debris",
        "lat": -18.14790031450194,
        "lon": 117.27770860378126,
        "alt_km": 709.5209601459073,
        "timestamp": "2025-12-26T11:25:45.585440+00:00",
        "meta_object_name": "COSMOS 2251 DEB",
        "meta_object_id": "1993-036YF",
        "meta_epoch": "2025-12-25T17:56:52.785024",
        "meta_mean_motion": 14.57622128,
        "meta_eccentricity": 0.00141684,
        "meta_inclination": 74.0298,
        "meta_ra_of_asc_node": 124.0483,
        "meta_arg_of_pericenter": 229.0876,
        "meta_mean_anomaly": 251.3534,
        "meta_ephemeris_type": 0,
        "meta_classification_type": "U",
        "meta_norad_cat_id": 34685,
        "meta_element_set_no": 999,
        "meta_rev_at_epoch": 88721,
        "meta_bstar": 0.0011617464,
        "meta_mean_motion_dot": 5.276e-05,
        "meta_mean_motion_ddot": 0,
        "tle_line1": "1 34685U 93036YF  25359.74783316  .00005276  00000+0  11617-2 0  9997",
        "tle_line2": "2 34685  74.0298 124.0483 0014168 229.0876 251.3534 14.57622128887211"
      },
      "geometry": {
        "type": "Point",
        "coordinates": [
          117.27770860378126,
          -18.14790031450194
        ]
      }
    },
    {
      "type": "Feature",
      "properties": {
        "norad_id": 34689,
        "name": "COSMOS 2251 DEB",
        "group": "cosmos-2251-debris",
        "lat": 72.642387587378,
        "lon": -94.6477124220331,
        "alt_km": 1034.8899470393799,
        "timestamp": "2025-12-26T11:25:45.585449+00:00",
        "meta_object_name": "COSMOS 2251 DEB",
        "meta_object_id": "1993-036YK",
        "meta_epoch": "2025-12-24T14:51:58.111776",
        "meta_mean_motion": 14.04584765,
        "meta_eccentricity": 0.02266729,
        "meta_inclination": 74.0907,
        "meta_ra_of_asc_node": 202.7308,
        "meta_arg_of_pericenter": 268.9545,
        "meta_mean_anomaly": 148.6343,
        "meta_ephemeris_type": 0,
        "meta_classification_type": "U",
        "meta_norad_cat_id": 34689,
        "meta_element_set_no": 999,
        "meta_rev_at_epoch": 84508,
        "meta_bstar": 0.0030686233,
        "meta_mean_motion_dot": 6.147e-05,
        "meta_mean_motion_ddot": 0,
        "tle_line1": "1 34689U 93036YK  25358.61942259  .00006147  00000+0  30686-2 0  9994",
        "tle_line2": "2 34689  74.0907 202.7308 0226672 268.9545 148.6343 14.04584765845083"
      },
      "geometry": {
        "type": "Point",
        "coordinates": [
          -94.6477124220331,
          72.642387587378
        ]
      }
    },
    {
      "type": "Feature",
      "properties": {
        "norad_id": 34721,
        "name": "COSMOS 2251 DEB",
        "group": "cosmos-2251-debris",
        "lat": 73.46287649942498,
        "lon": 46.19712917474041,
        "alt_km": 1028.6298800986124,
        "timestamp": "2025-12-26T11:25:45.585457+00:00",
        "meta_object_name": "COSMOS 2251 DEB",
        "meta_object_id": "1993-036YP",
        "meta_epoch": "2025-12-25T15:12:34.316928",
        "meta_mean_motion": 13.96900478,
        "meta_eccentricity": 0.0222577,
        "meta_inclination": 73.9235,
        "meta_ra_of_asc_node": 303.8768,
        "meta_arg_of_pericenter": 240.4474,
        "meta_mean_anomaly": 299.788,
        "meta_ephemeris_type": 0,
        "meta_classification_type": "U",
        "meta_norad_cat_id": 34721,
        "meta_element_set_no": 999,
        "meta_rev_at_epoch": 85329,
        "meta_bstar": 0.0010824,
        "meta_mean_motion_dot": 1.832e-05,
        "meta_mean_motion_ddot": 0,
        "tle_line1": "1 34721U 93036YP  25359.63373052  .00001832  00000+0  10824-2 0  9991",
        "tle_line2": "2 34721  73.9235 303.8768 0222577 240.4474 299.7880 13.96900478853290"
      },
      "geometry": {
        "type": "Point",
        "coordinates": [
          46.19712917474041,
          73.46287649942498
        ]
      }
    },
    {
      "type": "Feature",
      "properties": {
        "norad_id": 34722,
        "name": "COSMOS 2251 DEB",
        "group": "cosmos-2251-debris",
        "lat": -11.907273623846862,
        "lon": -51.93060598669331,
        "alt_km": 901.9517194894061,
        "timestamp": "2025-12-26T11:25:45.585466+00:00",
        "meta_object_name": "COSMOS 2251 DEB",
        "meta_object_id": "1993-036YQ",
        "meta_epoch": "2025-12-25T22:10:17.507136",
        "meta_mean_motion": 14.11971511,
        "meta_eccentricity": 0.0166401,
        "meta_inclination": 73.8736,
        "meta_ra_of_asc_node": 312.5518,
        "meta_arg_of_pericenter": 235.7883,
        "meta_mean_anomaly": 183.3029,
        "meta_ephemeris_type": 0,
        "meta_classification_type": "U",
        "meta_norad_cat_id": 34722,
        "meta_element_set_no": 999,
        "meta_rev_at_epoch": 86431,
        "meta_bstar": 0.00064598,
        "meta_mean_motion_dot": 1.32e-05,
        "meta_mean_motion_ddot": 0,
        "tle_line1": "1 34722U 93036YQ  25359.92381374  .00001320  00000+0  64598-3 0  9990",
        "tle_line2": "2 34722  73.8736 312.5518 0166401 235.7883 183.3029 14.11971511864312"
      },
      "geometry": {
        "type": "Point",
        "coordinates": [
          -51.93060598669331,
          -11.907273623846862
        ]
      }
    },
    {
      "type": "Feature",
      "properties": {
        "norad_id": 34726,
        "name": "COSMOS 2251 DEB",
        "group": "cosmos-2251-debris",
        "lat": -22.822087843123196,
        "lon": 147.04147292999477,
        "alt_km": 703.2846562280411,
        "timestamp": "2025-12-26T11:25:45.585475+00:00",
        "meta_object_name": "COSMOS 2251 DEB",
        "meta_object_id": "1993-036YU",
        "meta_epoch": "2025-12-25T14:45:46.552896",
        "meta_mean_motion": 14.5953237,
        "meta_eccentricity": 0.0041695,
        "meta_inclination": 74.0283,
        "meta_ra_of_asc_node": 321.7613,
        "meta_arg_of_pericenter": 108.412,
        "meta_mean_anomaly": 252.1586,
        "meta_ephemeris_type": 0,
        "meta_classification_type": "U",
        "meta_norad_cat_id": 34726,
        "meta_element_set_no": 999,
        "meta_rev_at_epoch": 88690,
        "meta_bstar": 0.00047692,
        "meta_mean_motion_dot": 2.263e-05,
        "meta_mean_motion_ddot": 0,
        "tle_line1": "1 34726U 93036YU  25359.61512214  .00002263  00000+0  47692-3 0  9992",
        "tle_line2": "2 34726  74.0283 321.7613 0041695 108.4120 252.1586 14.59532370886901"
      },
      "geometry": {
        "type": "Point",
        "coordinates": [
          147.04147292999477,
          -22.822087843123196
        ]
      }
    }
  ]
}